1 43013U 17073A   26012.79254383  .00000081  00000+0  59400-4 0  9991
2 43013  98.7632 313.7552 0001594  42.4497 317.6802 14.19535610422429
